{
  "type": "FeatureCollection",
  "features": [
    {
      "type": "Feature",
      "properties": {
        "norad_id": 44204,
        "name": "BEIDOU-3 IGSO-1 (C38)",
        "group": "gnss",
        "lat": 19.79553316982108,
        "lon": 52.3166223181332,
        "alt_km": 35900.71061032015,
        "timestamp": "2025-12-19T14:48:36.490837+00:00",
        "meta_object_name": "BEIDOU-3 IGSO-1 (C38)",
        "meta_object_id": "2019-023A",
        "meta_epoch": "2025-11-19T14:15:02.708640",
        "meta_mean_motion": 1.00252177,
        "meta_eccentricity": 0.0026966,
        "meta_inclination": 58.4003,
        "meta_ra_of_asc_node": 39.8168,
        "meta_arg_of_pericenter": 221.2202,
        "meta_mean_anomaly": 126.9723,
        "meta_ephemeris_type": 0,
        "meta_classification_type": "U",
        "meta_norad_cat_id": 44204,
        "meta_element_set_no": 999,
        "meta_rev_at_epoch": 510,
        "meta_bstar": 0,
        "meta_mean_motion_dot": -2.26e-06,
        "meta_mean_motion_ddot": 0,
        "tle_line1": "1 44204U 19023A   25323.59378135 -.00000226  00000+0  00000+0 0  9994",
        "tle_line2": "2 44204  58.4003  39.8168 0026966 221.2202 126.9723  1.00252177  5102"
      },
      "geometry": {
        "type": "Point",
        "coordinates": [
          52.3166223181332,
          19.79553316982108
        ]
      }
    },
    {
      "type": "Feature",
      "properties": {
        "norad_id": 44231,
        "name": "BEIDOU-2 G8 (C01)",
        "group": "gnss",
        "lat": 0.6118452715186726,
        "lon": 95.11233145155822,
        "alt_km": 35802.928595865305,
        "timestamp": "2025-12-19T14:48:36.490854+00:00",
        "meta_object_name": "BEIDOU-2 G8 (C01)",
        "meta_object_id": "2019-027A",
        "meta_epoch": "2025-12-19T07:06:10.829088",
        "meta_mean_motion": 1.00276635,
        "meta_eccentricity": 0.00081822,
        "meta_inclination": 1.6779,
        "meta_ra_of_asc_node": 74.7271,
        "meta_arg_of_pericenter": 258.4775,
        "meta_mean_anomaly": 5.9166,
        "meta_ephemeris_type": 0,
        "meta_classification_type": "U",
        "meta_norad_cat_id": 44231,
        "meta_element_set_no": 999,
        "meta_rev_at_epoch": 2427,
        "meta_bstar": 0,
        "meta_mean_motion_dot": -2.24e-06,
        "meta_mean_motion_ddot": 0,
        "tle_line1": "1 44231U 19027A   25353.29595867 -.00000224  00000+0  00000+0 0  9999",
        "tle_line2": "2 44231   1.6779  74.7271 0008182 258.4775   5.9166  1.00276635 24273"
      },
      "geometry": {
        "type": "Point",
        "coordinates": [
          95.11233145155822,
          0.6118452715186726
        ]
      }
    },
    {
      "type": "Feature",
      "properties": {
        "norad_id": 44299,
        "name": "COSMOS 2534 (758)",
        "group": "gnss",
        "lat": -62.10686361484411,
        "lon": 83.83193396969993,
        "alt_km": 19116.212147745486,
        "timestamp": "2025-12-19T14:48:36.490865+00:00",
        "meta_object_name": "COSMOS 2534 (758)",
        "meta_object_id": "2019-030A",
        "meta_epoch": "2025-12-18T18:30:09.690336",
        "meta_mean_motion": 2.13102412,
        "meta_eccentricity": 0.0008748,
        "meta_inclination": 64.3658,
        "meta_ra_of_asc_node": 198.6898,
        "meta_arg_of_pericenter": 284.2192,
        "meta_mean_anomaly": 45.4012,
        "meta_ephemeris_type": 0,
        "meta_classification_type": "U",
        "meta_norad_cat_id": 44299,
        "meta_element_set_no": 999,
        "meta_rev_at_epoch": 5107,
        "meta_bstar": 0,
        "meta_mean_motion_dot": 1.08e-06,
        "meta_mean_motion_ddot": 0,
        "tle_line1": "1 44299U 19030A   25352.77094549  .00000108  00000+0  00000+0 0  9990",
        "tle_line2": "2 44299  64.3658 198.6898 0008748 284.2192  45.4012  2.13102412 51071"
      },
      "geometry": {
        "type": "Point",
        "coordinates": [
          83.83193396969993,
          -62.10686361484411
        ]
      }
    },
    {
      "type": "Feature",
      "properties": {
        "norad_id": 44337,
        "name": "BEIDOU-3 IGSO-2 (C39)",
        "group": "gnss",
        "lat": -55.16713533627598,
        "lon": 70.50490822716432,
        "alt_km": 35733.158803674014,
        "timestamp": "2025-12-19T14:48:36.490881+00:00",
        "meta_object_name": "BEIDOU-3 IGSO-2 (C39)",
        "meta_object_id": "2019-035A",
        "meta_epoch": "2025-12-18T20:43:04.464768",
        "meta_mean_motion": 1.00269481,
        "meta_eccentricity": 0.00375097,
        "meta_inclination": 55.2274,
        "meta_ra_of_asc_node": 160.4476,
        "meta_arg_of_pericenter": 202.2689,
        "meta_mean_anomaly": 155.2054,
        "meta_ephemeris_type": 0,
        "meta_classification_type": "U",
        "meta_norad_cat_id": 44337,
        "meta_element_set_no": 999,
        "meta_rev_at_epoch": 2385,
        "meta_bstar": 0,
        "meta_mean_motion_dot": -5.3e-07,
        "meta_mean_motion_ddot": 0,
        "tle_line1": "1 44337U 19035A   25352.86324612 -.00000053  00000+0  00000+0 0  9995",
        "tle_line2": "2 44337  55.2274 160.4476 0037509 202.2689 155.2054  1.00269481 23850"
      },
      "geometry": {
        "type": "Point",
        "coordinates": [
          70.50490822716432,
          -55.16713533627598
        ]
      }
    },
    {
      "type": "Feature",
      "properties": {
        "norad_id": 44506,
        "name": "GPS BIII-2  (PRN 18)",
        "group": "gnss",
        "lat": -26.936889313313404,
        "lon": -42.010205581549315,
        "alt_km": 20279.526125676402,
        "timestamp": "2025-12-19T14:48:36.490893+00:00",
        "meta_object_name": "GPS BIII-2  (PRN 18)",
        "meta_object_id": "2019-056A",
        "meta_epoch": "2025-12-19T05:28:09.023808",
        "meta_mean_motion": 2.00566646,
        "meta_eccentricity": 0.00577244,
        "meta_inclination": 55.7191,
        "meta_ra_of_asc_node": 338.2952,
        "meta_arg_of_pericenter": 198.526,
        "meta_mean_anomaly": 206.6724,
        "meta_ephemeris_type": 0,
        "meta_classification_type": "U",
        "meta_norad_cat_id": 44506,
        "meta_element_set_no": 999,
        "meta_rev_at_epoch": 4646,
        "meta_bstar": 0,
        "meta_mean_motion_dot": -8.1e-07,
        "meta_mean_motion_ddot": 0,
        "tle_line1": "1 44506U 19056A   25353.22788222 -.00000081  00000+0  00000+0 0  9999",
        "tle_line2": "2 44506  55.7191 338.2952 0057724 198.5260 206.6724  2.00566646 46469"
      },
      "geometry": {
        "type": "Point",
        "coordinates": [
          -42.010205581549315,
          -26.936889313313404
        ]
      }
    },
    {
      "type": "Feature",
      "properties": {
        "norad_id": 44542,
        "name": "BEIDOU-3 M24 (C46)",
        "group": "gnss",
        "lat": 7.43028851039395,
        "lon": 3.4261507563221802,
        "alt_km": 21549.60418177628,
        "timestamp": "2025-12-19T14:48:36.490904+00:00",
        "meta_object_name": "BEIDOU-3 M24 (C46)",
        "meta_object_id": "2019-061A",
        "meta_epoch": "2025-12-18T19:48:47.972736",
        "meta_mean_motion": 1.86229393,
        "meta_eccentricity": 0.00096105,
        "meta_inclination": 54.4002,
        "meta_ra_of_asc_node": 188.8106,
        "meta_arg_of_pericenter": 25.1866,
        "meta_mean_anomaly": 334.925,
        "meta_ephemeris_type": 0,
        "meta_classification_type": "U",
        "meta_norad_cat_id": 44542,
        "meta_element_set_no": 999,
        "meta_rev_at_epoch": 4243,
        "meta_bstar": 0,
        "meta_mean_motion_dot": 1.06e-06,
        "meta_mean_motion_ddot": 0,
        "tle_line1": "1 44542U 19061A   25352.82555524  .00000106  00000+0  00000+0 0  9994",
        "tle_line2": "2 44542  54.4002 188.8106 0009610  25.1866 334.9250  1.86229393 42434"
      },
      "geometry": {
        "type": "Point",
        "coordinates": [
          3.4261507563221802,
          7.43028851039395
        ]
      }
    },
    {
      "type": "Feature",
      "properties": {
        "norad_id": 44543,
        "name": "BEIDOU-3 M23 (C45)",
        "group": "gnss",
        "lat": 53.86041113666493,
        "lon": -92.24705471517917,
        "alt_km": 21513.255688385772,
        "timestamp": "2025-12-19T14:48:36.490915+00:00",
        "meta_object_name": "BEIDOU-3 M23 (C45)",
        "meta_object_id": "2019-061B",
        "meta_epoch": "2025-12-19T04:54:38.810304",
        "meta_mean_motion": 1.86227724,
        "meta_eccentricity": 0.0006055,
        "meta_inclination": 54.3992,
        "meta_ra_of_asc_node": 188.7663,
        "meta_arg_of_pericenter": 24.9207,
        "meta_mean_anomaly": 142.055,
        "meta_ephemeris_type": 0,
        "meta_classification_type": "U",
        "meta_norad_cat_id": 44543,
        "meta_element_set_no": 999,
        "meta_rev_at_epoch": 4244,
        "meta_bstar": 0,
        "meta_mean_motion_dot": 1.04e-06,
        "meta_mean_motion_ddot": 0,
        "tle_line1": "1 44543U 19061B   25353.20461586  .00000104  00000+0  00000+0 0  9990",
        "tle_line2": "2 44543  54.3992 188.7663 0006055  24.9207 142.0550  1.86227724 42443"
      },
      "geometry": {
        "type": "Point",
        "coordinates": [
          -92.24705471517917,
          53.86041113666493
        ]
      }
    }
  ]
}